SL-3 R/B                
1 19046U 88032B   26087.88935703  .00006212  00000+0  28804-3 0  9992
2 19046  97.5210  71.0783 0026357 163.0850 197.1270 15.20116625 55026
SL-16 R/B               
1 19120U 88039B   26087.86428230  .00000176  00000+0  10565-3 0  9990
2 19120  71.0167  28.0016 0023650 306.8902  53.0056 14.19619079961101
COSMOS 1953             
1 19210U 88050A   26087.87030181  .00007898  00000+0  28029-3 0  9990
2 19210  82.5084 138.9530 0012347  62.8724 297.3774 15.28818010 40712
SL-8 R/B                
1 19257U 88053B   26087.72796914  .00000364  00000+0  12650-3 0  9995
2 19257  74.0456  77.3693 0021466 254.1426 279.6167 14.38929046979335
COSMOS 1975             
1 19573U 88093A   26087.77911889  .00008040  00000+0  28959-3 0  9993
2 19573  82.5163  98.5143 0013418 102.5485 257.7256 15.28323229 22324
SL-14 R/B               
1 19574U 88093B   26087.85603647  .00000621  00000+0  68606-4 0  9994
2 19574  82.5338  24.0545 0020111 339.0123  74.7255 14.85679218  3861
SL-16 R/B               
1 19650U 88102B   26087.48187473 -.00000148  00000+0 -50536-4 0  9992
2 19650  70.9971 111.9564 0015105 333.4677  26.5671 14.16153562929559
INTERCOSMOS 24          
1 20261U 89080A   26087.70732853  .00000559  00000+0  16527-3 0  9996
2 20261  82.6011  92.0160 1186854 248.6380  98.4176 12.59582320669196
SL-14 R/B               
1 20262U 89080C   26087.68024648  .00000372  00000+0  10352-3 0  9993
2 20262  82.5955 161.0004 1230893 141.3632 228.2403 12.50511882662521
DELTA 1 R/B             
1 20323U 89089B   26087.79599364  .00000350  00000+0  94902-4 0  9994
2 20323  97.0692 292.1935 0070504  62.8084 298.0277 14.50678383898500
ARIANE 40 R/B           
1 20443U 90005H   26087.78452464  .00000254  00000+0  94215-4 0  9995
2 20443  98.3043 147.8733 0010977 142.7264 217.4688 14.39882607895551
DELTA 2 R/B(1)          
1 20453U 90008B   26087.60854468  .00077150  00000+0  83951-3 0  9993
2 20453  35.6036  50.4637 0077886  75.7767 285.1606 15.58461420929081
