CCSDS_OMM_VERS = 2.0
CREATION_DATE  = 
ORIGINATOR     = 

OBJECT_NAME    = SL-3 R/B
OBJECT_ID      = 1988-032B
CENTER_NAME    = EARTH
REF_FRAME      = TEME
TIME_SYSTEM    = UTC
MEAN_ELEMENT_THEORY = SGP/SGP4

EPOCH          = 2026-03-28T21:20:40.447392
MEAN_MOTION    = 15.20116625
ECCENTRICITY   = .0026357
INCLINATION    = 97.5210
RA_OF_ASC_NODE = 71.0783
ARG_OF_PERICENTER = 163.0850
MEAN_ANOMALY   = 197.1270

EPHEMERIS_TYPE = 0
CLASSIFICATION_TYPE = U
NORAD_CAT_ID   = 19046
ELEMENT_SET_NO = 999
REV_AT_EPOCH   = 5502
BSTAR          = .28804E-3
MEAN_MOTION_DOT = .6212E-4
MEAN_MOTION_DDOT = 0

CCSDS_OMM_VERS = 2.0
CREATION_DATE  = 
ORIGINATOR     = 

OBJECT_NAME    = SL-16 R/B
OBJECT_ID      = 1988-039B
CENTER_NAME    = EARTH
REF_FRAME      = TEME
TIME_SYSTEM    = UTC
MEAN_ELEMENT_THEORY = SGP/SGP4

EPOCH          = 2026-03-28T20:44:33.990720
MEAN_MOTION    = 14.19619079
ECCENTRICITY   = .002365
INCLINATION    = 71.0167
RA_OF_ASC_NODE = 28.0016
ARG_OF_PERICENTER = 306.8902
MEAN_ANOMALY   = 53.0056

EPHEMERIS_TYPE = 0
CLASSIFICATION_TYPE = U
NORAD_CAT_ID   = 19120
ELEMENT_SET_NO = 999
REV_AT_EPOCH   = 96110
BSTAR          = .10565E-3
MEAN_MOTION_DOT = .176E-5
MEAN_MOTION_DDOT = 0

CCSDS_OMM_VERS = 2.0
CREATION_DATE  = 
ORIGINATOR     = 

OBJECT_NAME    = COSMOS 1953
OBJECT_ID      = 1988-050A
CENTER_NAME    = EARTH
REF_FRAME      = TEME
TIME_SYSTEM    = UTC
MEAN_ELEMENT_THEORY = SGP/SGP4

EPOCH          = 2026-03-28T20:53:14.076384
MEAN_MOTION    = 15.28818010
ECCENTRICITY   = .0012347
INCLINATION    = 82.5084
RA_OF_ASC_NODE = 138.9530
ARG_OF_PERICENTER = 62.8724
MEAN_ANOMALY   = 297.3774

EPHEMERIS_TYPE = 0
CLASSIFICATION_TYPE = U
NORAD_CAT_ID   = 19210
ELEMENT_SET_NO = 999
REV_AT_EPOCH   = 4071
BSTAR          = .28029E-3
MEAN_MOTION_DOT = .7898E-4
MEAN_MOTION_DDOT = 0

CCSDS_OMM_VERS = 2.0
CREATION_DATE  = 
ORIGINATOR     = 

OBJECT_NAME    = SL-8 R/B
OBJECT_ID      = 1988-053B
CENTER_NAME    = EARTH
REF_FRAME      = TEME
TIME_SYSTEM    = UTC
MEAN_ELEMENT_THEORY = SGP/SGP4

EPOCH          = 2026-03-28T17:28:16.533696
MEAN_MOTION    = 14.38929046
ECCENTRICITY   = .0021466
INCLINATION    = 74.0456
RA_OF_ASC_NODE = 77.3693
ARG_OF_PERICENTER = 254.1426
MEAN_ANOMALY   = 279.6167

EPHEMERIS_TYPE = 0
CLASSIFICATION_TYPE = U
NORAD_CAT_ID   = 19257
ELEMENT_SET_NO = 999
REV_AT_EPOCH   = 97933
BSTAR          = .1265E-3
MEAN_MOTION_DOT = .364E-5
MEAN_MOTION_DDOT = 0

CCSDS_OMM_VERS = 2.0
CREATION_DATE  = 
ORIGINATOR     = 

OBJECT_NAME    = COSMOS 1975
OBJECT_ID      = 1988-093A
CENTER_NAME    = EARTH
REF_FRAME      = TEME
TIME_SYSTEM    = UTC
MEAN_ELEMENT_THEORY = SGP/SGP4

EPOCH          = 2026-03-28T18:41:55.872096
MEAN_MOTION    = 15.28323229
ECCENTRICITY   = .0013418
INCLINATION    = 82.5163
RA_OF_ASC_NODE = 98.5143
ARG_OF_PERICENTER = 102.5485
MEAN_ANOMALY   = 257.7256

EPHEMERIS_TYPE = 0
CLASSIFICATION_TYPE = U
NORAD_CAT_ID   = 19573
ELEMENT_SET_NO = 999
REV_AT_EPOCH   = 2232
BSTAR          = .28959E-3
MEAN_MOTION_DOT = .804E-4
MEAN_MOTION_DDOT = 0

CCSDS_OMM_VERS = 2.0
CREATION_DATE  = 
ORIGINATOR     = 

OBJECT_NAME    = SL-14 R/B
OBJECT_ID      = 1988-093B
CENTER_NAME    = EARTH
REF_FRAME      = TEME
TIME_SYSTEM    = UTC
MEAN_ELEMENT_THEORY = SGP/SGP4

EPOCH          = 2026-03-28T20:32:41.551008
MEAN_MOTION    = 14.85679218
ECCENTRICITY   = .0020111
INCLINATION    = 82.5338
RA_OF_ASC_NODE = 24.0545
ARG_OF_PERICENTER = 339.0123
MEAN_ANOMALY   = 74.7255

EPHEMERIS_TYPE = 0
CLASSIFICATION_TYPE = U
NORAD_CAT_ID   = 19574
ELEMENT_SET_NO = 999
REV_AT_EPOCH   = 386
BSTAR          = .68606E-4
MEAN_MOTION_DOT = .621E-5
MEAN_MOTION_DDOT = 0

CCSDS_OMM_VERS = 2.0
CREATION_DATE  = 
ORIGINATOR     = 

OBJECT_NAME    = SL-16 R/B
OBJECT_ID      = 1988-102B
CENTER_NAME    = EARTH
REF_FRAME      = TEME
TIME_SYSTEM    = UTC
MEAN_ELEMENT_THEORY = SGP/SGP4

EPOCH          = 2026-03-28T11:33:53.976672
MEAN_MOTION    = 14.16153562
ECCENTRICITY   = .00151059
INCLINATION    = 70.9971
RA_OF_ASC_NODE = 111.9564
ARG_OF_PERICENTER = 333.4677
MEAN_ANOMALY   = 26.5671

EPHEMERIS_TYPE = 0
CLASSIFICATION_TYPE = U
NORAD_CAT_ID   = 19650
ELEMENT_SET_NO = 999
REV_AT_EPOCH   = 92955
BSTAR          = -.50535598E-4
MEAN_MOTION_DOT = -.148E-5
MEAN_MOTION_DDOT = 0

CCSDS_OMM_VERS = 2.0
CREATION_DATE  = 
ORIGINATOR     = 

OBJECT_NAME    = INTERCOSMOS 24
OBJECT_ID      = 1989-080A
CENTER_NAME    = EARTH
REF_FRAME      = TEME
TIME_SYSTEM    = UTC
MEAN_ELEMENT_THEORY = SGP/SGP4

EPOCH          = 2026-03-28T16:58:33.184992
MEAN_MOTION    = 12.59582320
ECCENTRICITY   = .1186854
INCLINATION    = 82.6011
RA_OF_ASC_NODE = 92.0160
ARG_OF_PERICENTER = 248.6380
MEAN_ANOMALY   = 98.4176

EPHEMERIS_TYPE = 0
CLASSIFICATION_TYPE = U
NORAD_CAT_ID   = 20261
ELEMENT_SET_NO = 999
REV_AT_EPOCH   = 66919
BSTAR          = .16527E-3
MEAN_MOTION_DOT = .559E-5
MEAN_MOTION_DDOT = 0

CCSDS_OMM_VERS = 2.0
CREATION_DATE  = 
ORIGINATOR     = 

OBJECT_NAME    = SL-14 R/B
OBJECT_ID      = 1989-080C
CENTER_NAME    = EARTH
REF_FRAME      = TEME
TIME_SYSTEM    = UTC
MEAN_ELEMENT_THEORY = SGP/SGP4

EPOCH          = 2026-03-28T16:19:33.295872
MEAN_MOTION    = 12.50511882
ECCENTRICITY   = .1230893
INCLINATION    = 82.5955
RA_OF_ASC_NODE = 161.0004
ARG_OF_PERICENTER = 141.3632
MEAN_ANOMALY   = 228.2403

EPHEMERIS_TYPE = 0
CLASSIFICATION_TYPE = U
NORAD_CAT_ID   = 20262
ELEMENT_SET_NO = 999
REV_AT_EPOCH   = 66252
BSTAR          = .10352E-3
MEAN_MOTION_DOT = .372E-5
MEAN_MOTION_DDOT = 0

CCSDS_OMM_VERS = 2.0
CREATION_DATE  = 
ORIGINATOR     = 

OBJECT_NAME    = DELTA 1 R/B
OBJECT_ID      = 1989-089B
CENTER_NAME    = EARTH
REF_FRAME      = TEME
TIME_SYSTEM    = UTC
MEAN_ELEMENT_THEORY = SGP/SGP4

EPOCH          = 2026-03-28T19:06:13.850496
MEAN_MOTION    = 14.50678383
ECCENTRICITY   = .0070504
INCLINATION    = 97.0692
RA_OF_ASC_NODE = 292.1935
ARG_OF_PERICENTER = 62.8084
MEAN_ANOMALY   = 298.0277

EPHEMERIS_TYPE = 0
CLASSIFICATION_TYPE = U
NORAD_CAT_ID   = 20323
ELEMENT_SET_NO = 999
REV_AT_EPOCH   = 89850
BSTAR          = .94902E-4
MEAN_MOTION_DOT = .35E-5
MEAN_MOTION_DDOT = 0

CCSDS_OMM_VERS = 2.0
CREATION_DATE  = 
ORIGINATOR     = 

OBJECT_NAME    = ARIANE 40 R/B
OBJECT_ID      = 1990-005H
CENTER_NAME    = EARTH
REF_FRAME      = TEME
TIME_SYSTEM    = UTC
MEAN_ELEMENT_THEORY = SGP/SGP4

EPOCH          = 2026-03-28T18:49:42.928896
MEAN_MOTION    = 14.39882607
ECCENTRICITY   = .0010977
INCLINATION    = 98.3043
RA_OF_ASC_NODE = 147.8733
ARG_OF_PERICENTER = 142.7264
MEAN_ANOMALY   = 217.4688

EPHEMERIS_TYPE = 0
CLASSIFICATION_TYPE = U
NORAD_CAT_ID   = 20443
ELEMENT_SET_NO = 999
REV_AT_EPOCH   = 89555
BSTAR          = .94215E-4
MEAN_MOTION_DOT = .254E-5
MEAN_MOTION_DDOT = 0

CCSDS_OMM_VERS = 2.0
CREATION_DATE  = 
ORIGINATOR     = 

OBJECT_NAME    = DELTA 2 R/B(1)
OBJECT_ID      = 1990-008B
CENTER_NAME    = EARTH
REF_FRAME      = TEME
TIME_SYSTEM    = UTC
MEAN_ELEMENT_THEORY = SGP/SGP4

EPOCH          = 2026-03-28T14:36:18.260352
MEAN_MOTION    = 15.58461420
ECCENTRICITY   = .0077886
INCLINATION    = 35.6036
RA_OF_ASC_NODE = 50.4637
ARG_OF_PERICENTER = 75.7767
MEAN_ANOMALY   = 285.1606

EPHEMERIS_TYPE = 0
CLASSIFICATION_TYPE = U
NORAD_CAT_ID   = 20453
ELEMENT_SET_NO = 999
REV_AT_EPOCH   = 92908
BSTAR          = .83951E-3
MEAN_MOTION_DOT = .7715E-3
MEAN_MOTION_DDOT = 0

